NORAD_CAT_ID,OBJECT_NAME,OBJECT_TYPE,EPOCH,MEAN_MOTION,ECCENTRICITY,INCLINATION,RA_OF_ASC_NODE,ARG_OF_PERICENTER,MEAN_ANOMALY,BSTAR,MEAN_MOTION_DOT,MEAN_MOTION_DDOT,TLE_LINE0,TLE_LINE1,TLE_LINE2,SEMIMAJOR_AXIS,PERIOD,APOGEE,PERIGEE,DECAYED
53860.0,STARLINK-4799,PAYLOAD,2023-08-05 09:54:54,15.08843383,0.0001229,53.2155,216.7243,96.7985,263.3147,4.7323e-05,4.65e-06,0.0,0 STARLINK-4799,1 53860U 22114AU  23217.41313143  .00000465  00000-0  47323-4 0  9995,2 53860  53.2155 216.7243 0001229  96.7985 263.3147 15.08843383 49561,6917.87,95.437,540.585,538.885,0.0
53860.0,STARLINK-4799,PAYLOAD,2023-08-07 01:39:33,15.08833788,0.000115,53.2148,209.2896,86.7145,273.3979,-1.1617e-05,-4.73e-06,0.0,0 STARLINK-4799,1 53860U 22114AU  23219.06914112 -.00000473  00000-0 -11617-4 0  9999,2 53860  53.2148 209.2896 0001150  86.7145 273.3979 15.08833788 49814,6917.899,95.438,540.56,538.969,0.0
53860.0,STARLINK-4799,PAYLOAD,2023-08-08 07:51:52,15.08841905,0.0001165,53.2155,203.6403,86.7371,273.3754,5.3017e-05,5.56e-06,0.0,0 STARLINK-4799,1 53860U 22114AU  23220.32769610  .00000556  00000-0  53017-4 0  9991,2 53860  53.2155 203.6403 0001165  86.7371 273.3754 15.08841905 50005,6917.875,95.437,540.545,538.934,0.0
53860.0,STARLINK-4799,PAYLOAD,2023-08-08 23:45:44,15.0883337,0.0001195,53.2162,200.6667,89.3617,270.7512,3.2533e-05,2.3e-06,0.0,0 STARLINK-4799,1 53860U 22114AU  23220.99010312  .00000230  00000-0  32533-4 0  9991,2 53860  53.2162 200.6667 0001195  89.3617 270.7512 15.08833370 50108,6917.901,95.438,540.592,538.939,0.0
53860.0,STARLINK-4799,PAYLOAD,2023-08-10 07:33:27,15.08843419,0.0001177,53.2157,194.7185,85.6238,274.4888,3.4327e-05,2.59e-06,0.0,0 STARLINK-4799,1 53860U 22114AU  23222.31489856  .00000259  00000-0  34327-4 0  9996,2 53860  53.2157 194.7185 0001177  85.6238 274.4888 15.08843419 50302,6917.87,95.437,540.549,538.921,0.0
53860.0,STARLINK-4799,PAYLOAD,2023-08-10 23:27:19,15.08827901,0.0001258,53.2154,191.7445,90.8941,269.2195,0.00014947,2.091e-05,0.0,0 STARLINK-4799,1 53860U 22114AU  23222.97730543  .00002091  00000-0  14947-3 0  9991,2 53860  53.2154 191.7445 0001258  90.8941 269.2195 15.08827901 50406,6917.917,95.438,540.653,538.912,0.0
53860.0,STARLINK-4799,PAYLOAD,2023-08-11 07:24:14,15.08841697,0.0001255,53.2153,190.2574,90.753,269.3606,5.4779e-05,5.84e-06,0.0,0 STARLINK-4799,1 53860U 22114AU  23223.30849934  .00000584  00000-0  54779-4 0  9997,2 53860  53.2153 190.2574 0001255  90.7530 269.3606 15.08841697 50453,6917.875,95.437,540.608,538.872,0.0
53860.0,STARLINK-4799,PAYLOAD,2023-08-11 15:21:10,15.08827545,0.0001258,53.2149,188.7703,92.2934,267.8202,0.00011694,1.573e-05,0.0,0 STARLINK-4799,1 53860U 22114AU  23223.63970740  .00001573  00000-0  11694-3 0  9990,2 53860  53.2149 188.7703 0001258  92.2934 267.8202 15.08827545 50509,6917.918,95.438,540.654,538.913,0.0
53860.0,STARLINK-4799,PAYLOAD,2023-08-12 02:28:52,15.08837952,0.0001343,53.2153,186.689,90.4981,269.6165,3.1832e-05,2.19e-06,0.0,0 STARLINK-4799,1 53860U 22114AU  23224.10338431  .00000219  00000-0  31832-4 0  9991,2 53860  53.2153 186.6890 0001343  90.4981 269.6165 15.08837952 50573,6917.887,95.438,540.681,538.823,0.0
53860.0,STARLINK-4799,PAYLOAD,2023-08-13 07:05:48,15.08848033,0.0001326,53.2164,181.3373,87.1551,272.9593,7.8824e-05,9.67e-06,0.0,0 STARLINK-4799,1 53860U 22114AU  23225.29569602  .00000967  00000-0  78824-4 0  9990,2 53860  53.2164 181.3373 0001326  87.1551 272.9593 15.08848033 50754,6917.856,95.437,540.638,538.804,0.0
53860.0,STARLINK-4799,PAYLOAD,2023-08-14 00:35:03,15.08830474,0.000143,53.2173,178.0676,87.7743,272.3413,-2.2392e-05,-6.44e-06,0.0,0 STARLINK-4799,1 53860U 22114AU  23226.02435148 -.00000644  00000-0 -22392-4 0  9992,2 53860  53.2173 178.0676 0001430  87.7743 272.3413 15.08830474 50865,6917.91,95.438,540.764,538.785,0.0
53860.0,STARLINK-4799,PAYLOAD,2023-08-14 06:56:36,15.08837767,0.0001321,53.2169,176.878,91.4486,268.6657,3.2447e-05,2.29e-06,0.0,0 STARLINK-4799,1 53860U 22114AU  23226.28930592  .00000229  00000-0  32447-4 0  9992,2 53860  53.2169 176.8780 0001321  91.4486 268.6657 15.08837767 50902,6917.887,95.438,540.666,538.838,0.0
53860.0,STARLINK-4799,PAYLOAD,2023-08-16 03:27:23,15.08840395,0.000139,53.2172,168.5529,99.2278,260.8872,8.0041e-05,9.86e-06,0.0,0 STARLINK-4799,1 53860U 22114AU  23228.14402678  .00000986  00000-0  80041-4 0  9991,2 53860  53.2172 168.5529 0001390  99.2278 260.8872 15.08840395 51181,6917.879,95.438,540.706,538.783,0.0
53860.0,STARLINK-4799,PAYLOAD,2023-08-17 04:53:33,15.08845294,0.0001437,53.2171,163.7943,105.5925,254.5226,8.4815e-05,1.062e-05,0.0,0 STARLINK-4799,1 53860U 22114AU  23229.20386362  .00001062  00000-0  84815-4 0  9999,2 53860  53.2171 163.7943 0001437 105.5925 254.5226 15.08845294 51343,6917.864,95.437,540.723,538.735,0.0
53860.0,STARLINK-4799,PAYLOAD,2023-08-18 03:08:58,15.08842968,0.0001384,53.2166,159.6305,87.6131,272.5019,2.7318e-05,1.47e-06,0.0,0 STARLINK-4799,1 53860U 22114AU  23230.13122851  .00000147  00000-0  27318-4 0  9992,2 53860  53.2166 159.6305 0001384  87.6131 272.5019 15.08842968 51483,6917.871,95.437,540.694,538.779,0.0
53860.0,STARLINK-4799,PAYLOAD,2023-08-19 01:24:22,15.08838252,0.0001382,53.2164,155.4679,96.7176,263.3973,-7.3321e-05,-1.455e-05,0.0,0 STARLINK-4799,1 53860U 22114AU  23231.05859423 -.00001455  00000-0 -73321-4 0  9996,2 53860  53.2164 155.4679 0001382  96.7176 263.3973 15.08838252 51621,6917.886,95.438,540.707,538.795,0.0
53860.0,STARLINK-4799,PAYLOAD,2023-08-21 04:16:42,15.08846469,0.0001402,53.2169,145.9527,84.5564,275.5588,9.1932e-05,1.176e-05,0.0,0 STARLINK-4799,1 53860U 22114AU  23233.17826645  .00001176  00000-0  91932-4 0  9997,2 53860  53.2169 145.9527 0001402  84.5564 275.5588 15.08846469 51942,6917.861,95.437,540.695,538.756,0.0
53860.0,STARLINK-4799,PAYLOAD,2023-08-22 00:56:43,15.08838968,0.0001484,53.2175,142.0881,91.0481,269.0681,1.6293e-05,-2.9e-07,0.0,0 STARLINK-4799,1 53860U 22114AU  23234.03939465 -.00000029  00000-0  16293-4 0  9992,2 53860  53.2175 142.0881 0001484  91.0481 269.0681 15.08838968 52073,6917.884,95.438,540.775,538.722,0.0
53860.0,STARLINK-4799,PAYLOAD,2023-08-23 00:47:31,15.08835575,0.0001415,53.2172,137.6261,89.1884,270.927,-3.4482e-05,-8.37e-06,0.0,0 STARLINK-4799,1 53860U 22114AU  23235.03300034 -.00000837  00000-0 -34482-4 0  9995,2 53860  53.2172 137.6261 0001415  89.1884 270.9270 15.08835575 52224,6917.894,95.438,540.738,538.78,0.0
53860.0,STARLINK-4799,PAYLOAD,2023-08-24 19:42:56,15.08839043,0.0001648,53.2172,129.5975,64.4016,295.7146,4.4394e-05,4.19e-06,0.0,0 STARLINK-4799,1 53860U 22114AU  23236.82148170  .00000419  00000-0  44394-4 0  9991,2 53860  53.2172 129.5975 0001648  64.4016 295.7146 15.08839043 52790,6917.883,95.438,540.888,538.608,0.0
53860.0,STARLINK-4799,PAYLOAD,2023-08-25 02:04:28,15.08841196,0.0001323,53.2166,128.4091,86.1116,274.0027,8.2022e-05,1.018e-05,0.0,0 STARLINK-4799,1 53860U 22114AU  23237.08643752  .00001018  00000-0  82022-4 0  9992,2 53860  53.2166 128.4091 0001323  86.1116 274.0027 15.08841196 52534,6917.877,95.437,540.657,538.826,0.0
53860.0,STARLINK-4799,PAYLOAD,2023-08-25 19:33:43,15.08823606,0.0001311,53.216,125.139,81.342,278.7721,0.00022572,3.305e-05,0.0,0 STARLINK-4799,1 53860U 22114AU  23237.81508179  .00003305  00000-0  22572-3 0  9990,2 53860  53.2160 125.1390 0001311  81.3420 278.7721 15.08823606 52646,6917.93,95.439,540.702,538.889,0.0
53860.0,STARLINK-4799,PAYLOAD,2023-08-26 01:55:14,15.0884689,0.0001253,53.2168,123.9474,84.7054,275.4081,8.8703e-05,1.124e-05,0.0,0 STARLINK-4799,1 53860U 22114AU  23238.08003316  .00001124  00000-0  88703-4 0  9999,2 53860  53.2168 123.9474 0001253  84.7054 275.4081 15.08846890 52685,6917.859,95.437,540.591,538.858,0.0
53860.0,STARLINK-4799,PAYLOAD,2023-08-26 16:13:43,15.0883546,0.0001109,53.2183,121.2678,106.7551,253.3563,-2.2555e-05,-6.47e-06,0.0,0 STARLINK-4799,1 53860U 22114AU  23238.67620278 -.00000647  00000-0 -22555-4 0  9990,2 53860  53.2183 121.2678 0001109 106.7551 253.3563 15.08835460 52777,6917.894,95.438,540.526,538.992,0.0
53860.0,STARLINK-4799,PAYLOAD,2023-08-26 20:59:53,15.08839864,0.0001215,53.2164,120.3798,92.6644,267.4488,1.786e-05,-4e-08,0.0,0 STARLINK-4799,1 53860U 22114AU  23238.87491932 -.00000004  00000-0  17860-4 0  9994,2 53860  53.2164 120.3798 0001215  92.6644 267.4488 15.08839864 53105,6917.881,95.438,540.586,538.905,0.0
53860.0,STARLINK-4799,PAYLOAD,2023-08-26 22:35:16,15.08842032,0.0001277,53.2165,120.0819,88.8518,271.2621,3.635e-05,2.91e-06,0.0,0 STARLINK-4799,1 53860U 22114AU  23238.94115768  .00000291  00000-0  36350-4 0  9994,2 53860  53.2165 120.0819 0001277  88.8518 271.2621 15.08842032 52812,6917.874,95.437,540.623,538.856,0.0
53860.0,STARLINK-4799,PAYLOAD,2023-08-27 20:50:39,15.08843019,0.0001281,53.216,115.919,95.2241,264.8897,1.9978e-05,3e-07,0.0,0 STARLINK-4799,1 53860U 22114AU  23239.86851772  .00000030  00000-0  19978-4 0  9996,2 53860  53.2160 115.9190 0001281  95.2241 264.8897 15.08843019 53250,6917.871,95.437,540.622,538.85,0.0
53860.0,STARLINK-4799,PAYLOAD,2023-08-28 15:55:18,15.08836311,0.0001342,53.2161,112.3507,83.3665,276.748,1.5361e-05,-4.3e-07,0.0,0 STARLINK-4799,1 53860U 22114AU  23240.66340316 -.00000043  00000-0  15361-4 0  9990,2 53860  53.2161 112.3507 0001342  83.3665 276.7480 15.08836311 53077,6917.892,95.438,540.685,538.828,0.0
53860.0,STARLINK-4799,PAYLOAD,2023-08-28 20:41:27,15.08837207,0.0001337,53.2163,111.4587,84.2405,275.8739,1.9287e-05,1.9e-07,0.0,0 STARLINK-4799,1 53860U 22114AU  23240.86212267  .00000019  00000-0  19287-4 0  9998,2 53860  53.2163 111.4587 0001337  84.2405 275.8739 15.08837207 53402,6917.889,95.438,540.679,538.829,0.0
53860.0,STARLINK-4799,PAYLOAD,2023-08-29 20:32:14,15.08832938,0.0001319,53.2163,106.9975,97.1707,262.9435,-2.8111e-05,-7.35e-06,0.0,0 STARLINK-4799,1 53860U 22114AU  23241.85572852 -.00000735  00000-0 -28111-4 0  9990,2 53860  53.2163 106.9975 0001319  97.1707 262.9435 15.08832938 53552,6917.902,95.438,540.679,538.855,0.0
